start=new Date('2022-06-10T00:00:00.000Z').valueOf();
sats=[{"ELEMENT_SET_NO":"999","PERIOD":"95.437","OBJECT_TYPE":"PAYLOAD","INCLINATION":"53.2162","REV_AT_EPOCH":"130","TLE_LINE2":"2 51956  53.2162  53.7849 0002004  49.6764  53.9154 15.08845347  1301","REF_FRAME":"TEME","NORAD_CAT_ID":"51956","RA_OF_ASC_NODE":"53.7849","PERIAPSIS":"538.343","DECAY_DATE":null,"COUNTRY_CODE":"US","GP_ID":"205784131","MEAN_MOTION":"15.08845347","RCS_SIZE":"LARGE","LAUNCH_DATE":"2022-03-09","OBJECT_ID":"2022-025A","BSTAR":"-0.00133320000000","EPHEMERIS_TYPE":"0","ARG_OF_PERICENTER":"49.6764","FILE":"3489040","MEAN_ELEMENT_THEORY":"SGP4","TLE_LINE1":"1 51956U 22025A   22160.91667824 -.00021447  00000-0 -13332-2 0  9995","CLASSIFICATION_TYPE":"U","MEAN_MOTION_DDOT":"0.0000000000000","MEAN_MOTION_DOT":"-0.00021447","CENTER_NAME":"EARTH","OBJECT_NAME":"STARLINK-3700","APOAPSIS":"541.115","MEAN_ANOMALY":"53.9154","SEMIMAJOR_AXIS":"6917.864","TIME_SYSTEM":"UTC","EPOCH":"2022-06-09T22:00:00.999936","ECCENTRICITY":"0.00020040","SITE":"AFETR"},{"TIME_SYSTEM":"UTC","ECCENTRICITY":"0.00018980","SITE":"AFETR","EPOCH":"2022-06-09T22:00:00.999936","MEAN_ANOMALY":"145.5931","APOAPSIS":"541.052","OBJECT_NAME":"STARLINK-3694","CENTER_NAME":"EARTH","SEMIMAJOR_AXIS":"6917.874","MEAN_MOTION_DDOT":"0.0000000000000","MEAN_MOTION_DOT":"-0.00018471","MEAN_ELEMENT_THEORY":"SGP4","FILE":"3489040","CLASSIFICATION_TYPE":"U","TLE_LINE1":"1 51957U 22025B   22160.91667824 -.00018471  00000-0 -11453-2 0  9991","LAUNCH_DATE":"2022-03-09","ARG_OF_PERICENTER":"57.9635","BSTAR":"-0.00114530000000","EPHEMERIS_TYPE":"0","OBJECT_ID":"2022-025B","PERIAPSIS":"538.426","DECAY_DATE":null,"RA_OF_ASC_NODE":"53.7832","RCS_SIZE":"LARGE","GP_ID":"205784159","COUNTRY_CODE":"US","MEAN_MOTION":"15.08841974","OBJECT_TYPE":"PAYLOAD","PERIOD":"95.437","ELEMENT_SET_NO":"999","NORAD_CAT_ID":"51957","REF_FRAME":"TEME","TLE_LINE2":"2 51957  53.2150  53.7832 0001898  57.9635 145.5931 15.08841974  1303","REV_AT_EPOCH":"130","INCLINATION":"53.2150"},{"TIME_SYSTEM":"UTC","SITE":"AFETR","ECCENTRICITY":"0.00020530","EPOCH":"2022-06-10T00:00:00.999648","APOAPSIS":"541.222","MEAN_ANOMALY":"170.1007","OBJECT_NAME":"STARLINK-3692","CENTER_NAME":"EARTH","SEMIMAJOR_AXIS":"6917.937","MEAN_MOTION_DDOT":"0.0000000000000","MEAN_MOTION_DOT":"0.00003329","MEAN_ELEMENT_THEORY":"SGP4","FILE":"3489007","CLASSIFICATION_TYPE":"U","TLE_LINE1":"1 51958U 22025C   22161.00001157  .00003329  00000-0  22728-3 0  9996","LAUNCH_DATE":"2022-03-09","ARG_OF_PERICENTER":"46.3530","EPHEMERIS_TYPE":"0","BSTAR":"0.00022728000000","OBJECT_ID":"2022-025C","PERIAPSIS":"538.382","DECAY_DATE":null,"RA_OF_ASC_NODE":"53.4124","RCS_SIZE":"LARGE","MEAN_MOTION":"15.08821487","GP_ID":"205758832","COUNTRY_CODE":"US","OBJECT_TYPE":"PAYLOAD","PERIOD":"95.439","ELEMENT_SET_NO":"999","NORAD_CAT_ID":"51958","REF_FRAME":"TEME","TLE_LINE2":"2 51958  53.2172  53.4124 0002053  46.3530 170.1007 15.08821487 15668","INCLINATION":"53.2172","REV_AT_EPOCH":"1566"},{"TLE_LINE1":"1 51959U 22025D   22161.00001157  .00002055  00000-0  14725-3 0  9990","CLASSIFICATION_TYPE":"U","FILE":"3489009","MEAN_ELEMENT_THEORY":"SGP4","MEAN_MOTION_DOT":"0.00002055","MEAN_MOTION_DDOT":"0.0000000000000","SEMIMAJOR_AXIS":"6917.932","OBJECT_NAME":"STARLINK-3704","CENTER_NAME":"EARTH","APOAPSIS":"541.095","MEAN_ANOMALY":"234.5529","EPOCH":"2022-06-10T00:00:00.999648","ECCENTRICITY":"0.00018760","SITE":"AFETR","TIME_SYSTEM":"UTC","REV_AT_EPOCH":"1566","INCLINATION":"53.2158","REF_FRAME":"TEME","NORAD_CAT_ID":"51959","TLE_LINE2":"2 51959  53.2158  53.4096 0001876  41.8785 234.5529 15.08823137 15663","ELEMENT_SET_NO":"999","OBJECT_TYPE":"PAYLOAD","PERIOD":"95.439","RCS_SIZE":"LARGE","GP_ID":"205758879","COUNTRY_CODE":"US","MEAN_MOTION":"15.08823137","RA_OF_ASC_NODE":"53.4096","PERIAPSIS":"538.499","DECAY_DATE":null,"ARG_OF_PERICENTER":"41.8785","EPHEMERIS_TYPE":"0","BSTAR":"0.00014725000000","OBJECT_ID":"2022-025D","LAUNCH_DATE":"2022-03-09"},{"TIME_SYSTEM":"UTC","EPOCH":"2022-06-10T00:00:00.999648","ECCENTRICITY":"0.00019850","SITE":"AFETR","CENTER_NAME":"EARTH","OBJECT_NAME":"STARLINK-3691","MEAN_ANOMALY":"267.6252","APOAPSIS":"541.205","SEMIMAJOR_AXIS":"6917.966","MEAN_MOTION_DDOT":"0.0000000000000","MEAN_MOTION_DOT":"-0.00001680","MEAN_ELEMENT_THEORY":"SGP4","FILE":"3489009","TLE_LINE1":"1 51960U 22025E   22161.00001157 -.00001680  00000-0 -87554-4 0  9998","CLASSIFICATION_TYPE":"U","LAUNCH_DATE":"2022-03-09","BSTAR":"-0.00008755400000","EPHEMERIS_TYPE":"0","OBJECT_ID":"2022-025E","ARG_OF_PERICENTER":"48.8554","RA_OF_ASC_NODE":"53.4081","PERIAPSIS":"538.458","DECAY_DATE":null,"MEAN_MOTION":"15.08811847","GP_ID":"205758869","COUNTRY_CODE":"US","RCS_SIZE":"LARGE","ELEMENT_SET_NO":"999","PERIOD":"95.439","OBJECT_TYPE":"PAYLOAD","REV_AT_EPOCH":"1566","INCLINATION":"53.2131","TLE_LINE2":"2 51960  53.2131  53.4081 0001985  48.8554 267.6252 15.08811847 15667","REF_FRAME":"TEME","NORAD_CAT_ID":"51960"},{"TLE_LINE1":"1 51961U 22025F   22161.00001157  .00007432  00000-0  48456-3 0  9995","CLASSIFICATION_TYPE":"U","MEAN_ELEMENT_THEORY":"SGP4","FILE":"3489009","MEAN_MOTION_DOT":"0.00007432","MEAN_MOTION_DDOT":"0.0000000000000","SEMIMAJOR_AXIS":"6917.888","CENTER_NAME":"EARTH","OBJECT_NAME":"STARLINK-3689","MEAN_ANOMALY":"186.4261","APOAPSIS":"541.122","EPOCH":"2022-06-10T00:00:00.999648","ECCENTRICITY":"0.00019790","SITE":"AFETR","TIME_SYSTEM":"UTC","INCLINATION":"53.2165","REV_AT_EPOCH":"1568","TLE_LINE2":"2 51961  53.2165  53.4103 0001979  50.0480 186.4261 15.08837588 15686","NORAD_CAT_ID":"51961","REF_FRAME":"TEME","ELEMENT_SET_NO":"999","PERIOD":"95.438","OBJECT_TYPE":"PAYLOAD","GP_ID":"205758871","MEAN_MOTION":"15.08837588","COUNTRY_CODE":"US","RCS_SIZE":"LARGE","RA_OF_ASC_NODE":"53.4103","DECAY_DATE":null,"PERIAPSIS":"538.384","BSTAR":"0.00048456000000","OBJECT_ID":"2022-025F","EPHEMERIS_TYPE":"0","ARG_OF_PERICENTER":"50.0480","LAUNCH_DATE":"2022-03-09"},{"BSTAR":"0.00092745000000","OBJECT_ID":"2022-025G","EPHEMERIS_TYPE":"0","ARG_OF_PERICENTER":"44.2516","LAUNCH_DATE":"2022-03-09","INCLINATION":"53.2134","REV_AT_EPOCH":"1568","TLE_LINE2":"2 51962  53.2134  53.4077 0001944  44.2516 307.0559 15.08810271 15681","REF_FRAME":"TEME","NORAD_CAT_ID":"51962","ELEMENT_SET_NO":"999","PERIOD":"95.439","OBJECT_TYPE":"PAYLOAD","MEAN_MOTION":"15.08810271","GP_ID":"205758870","COUNTRY_CODE":"US","RCS_SIZE":"LARGE","RA_OF_ASC_NODE":"53.4077","DECAY_DATE":null,"PERIAPSIS":"538.491","SEMIMAJOR_AXIS":"6917.971","CENTER_NAME":"EARTH","OBJECT_NAME":"STARLINK-3697","APOAPSIS":"541.181","MEAN_ANOMALY":"307.0559","EPOCH":"2022-06-10T00:00:00.999648","ECCENTRICITY":"0.00019440","SITE":"AFETR","TIME_SYSTEM":"UTC","TLE_LINE1":"1 51962U 22025G   22161.00001157  .00014491  00000-0  92745-3 0  9999","CLASSIFICATION_TYPE":"U","FILE":"3489009","MEAN_ELEMENT_THEORY":"SGP4","MEAN_MOTION_DOT":"0.00014491","MEAN_MOTION_DDOT":"0.0000000000000"},{"ECCENTRICITY":"0.00019500","SITE":"AFETR","EPOCH":"2022-06-09T22:00:00.999936","TIME_SYSTEM":"UTC","SEMIMAJOR_AXIS":"6917.923","APOAPSIS":"541.137","MEAN_ANOMALY":"114.8892","OBJECT_NAME":"STARLINK-3675","CENTER_NAME":"EARTH","MEAN_MOTION_DOT":"-0.00019855","MEAN_MOTION_DDOT":"0.0000000000000","CLASSIFICATION_TYPE":"U","TLE_LINE1":"1 51963U 22025H   22160.91667824 -.00019855  00000-0 -12333-2 0  9993","FILE":"3489040","MEAN_ELEMENT_THEORY":"SGP4","ARG_OF_PERICENTER":"48.6710","BSTAR":"-0.00123330000000","OBJECT_ID":"2022-025H","EPHEMERIS_TYPE":"0","LAUNCH_DATE":"2022-03-09","RCS_SIZE":"LARGE","MEAN_MOTION":"15.08826202","GP_ID":"205783920","COUNTRY_CODE":"US","PERIAPSIS":"538.439","DECAY_DATE":null,"RA_OF_ASC_NODE":"53.7838","REF_FRAME":"TEME","NORAD_CAT_ID":"51963","TLE_LINE2":"2 51963  53.2175  53.7838 0001950  48.6710 114.8892 15.08826202  1305","INCLINATION":"53.2175","REV_AT_EPOCH":"130","OBJECT_TYPE":"PAYLOAD","PERIOD":"95.438","ELEMENT_SET_NO":"999"},{"BSTAR":"0.00260210000000","OBJECT_ID":"2022-025J","EPHEMERIS_TYPE":"0","ARG_OF_PERICENTER":"48.4827","LAUNCH_DATE":"2022-03-09","GP_ID":"205759021","COUNTRY_CODE":"US","MEAN_MOTION":"15.08812699","RCS_SIZE":"LARGE","PERIAPSIS":"538.287","DECAY_DATE":null,"RA_OF_ASC_NODE":"53.3927","TLE_LINE2":"2 51964  53.2152  53.3927 0002229  48.4827 347.9083 15.08812699 15663","REF_FRAME":"TEME","NORAD_CAT_ID":"51964","INCLINATION":"53.2152","REV_AT_EPOCH":"1566","PERIOD":"95.439","OBJECT_TYPE":"PAYLOAD","ELEMENT_SET_NO":"999","ECCENTRICITY":"0.00022290","SITE":"AFETR","EPOCH":"2022-06-10T00:00:00.999648","TIME_SYSTEM":"UTC","SEMIMAJOR_AXIS":"6917.964","MEAN_ANOMALY":"347.9083","APOAPSIS":"541.371","CENTER_NAME":"EARTH","OBJECT_NAME":"STARLINK-3690","MEAN_MOTION_DOT":"0.00041337","MEAN_MOTION_DDOT":"0.0000000000000","CLASSIFICATION_TYPE":"U","TLE_LINE1":"1 51964U 22025J   22161.00001157  .00041337  00000-0  26021-2 0  9993","MEAN_ELEMENT_THEORY":"SGP4","FILE":"3489010"},{"LAUNCH_DATE":"2022-03-09","EPHEMERIS_TYPE":"0","BSTAR":"-0.00020625000000","OBJECT_ID":"2022-025K","ARG_OF_PERICENTER":"47.2199","RA_OF_ASC_NODE":"53.4084","PERIAPSIS":"538.485","DECAY_DATE":null,"GP_ID":"205758881","MEAN_MOTION":"15.08815286","COUNTRY_CODE":"US","RCS_SIZE":"LARGE","ELEMENT_SET_NO":"999","PERIOD":"95.439","OBJECT_TYPE":"PAYLOAD","REV_AT_EPOCH":"1566","INCLINATION":"53.2125","TLE_LINE2":"2 51965  53.2125  53.4084 0001931  47.2199 289.2794 15.08815286 15669","REF_FRAME":"TEME","NORAD_CAT_ID":"51965","TIME_SYSTEM":"UTC","EPOCH":"2022-06-10T00:00:00.999648","SITE":"AFETR","ECCENTRICITY":"0.00019310","CENTER_NAME":"EARTH","OBJECT_NAME":"STARLINK-3696","APOAPSIS":"541.157","MEAN_ANOMALY":"289.2794","SEMIMAJOR_AXIS":"6917.956","MEAN_MOTION_DDOT":"0.0000000000000","MEAN_MOTION_DOT":"-0.00003567","FILE":"3489010","MEAN_ELEMENT_THEORY":"SGP4","TLE_LINE1":"1 51965U 22025K   22161.00001157 -.00003567  00000-0 -20625-3 0  9994","CLASSIFICATION_TYPE":"U"}];
